Station,City,Latitude,Longitude,District,LgdCode,Coordinates,dcid,site_id
Secretariat,Amaravati,16.5045615,80.5235168,Guntur,506,[LatLong 16.5045615 80.5235168],cpcbAq/506_Secretariat_Amaravati,site_1406
AnandKalaKshetram,Rajamahendravaram,16.9955344,81.777335,Eastgodavari,505,[LatLong 16.9955344 81.777335],cpcbAq/505_AnandKalaKshetram_Rajamahendravaram,site_1399
Tirumala,Tirupati,13.6807357,79.3508975,Chittoor,503,[LatLong 13.6807357 79.3508975],cpcbAq/503_Tirumala_Tirupati,site_258
GVMCorporation,Visakhapatnam,17.6868159,83.2184815,Vishakhapatnam,520,[LatLong 17.6868159 83.2184815],cpcbAq/520_GVMCorporation_Visakhapatnam,site_260
Naharlagun,Naharlagun,27.1086309,93.6983979,Papumpare,237,[LatLong 27.1086309 93.6983979],cpcbAq/237_Naharlagun_Naharlagun,site_5446
PanBazaar,Guwahati,26.1859679,91.7453642,Kamrup,291,[LatLong 26.1859679 91.7453642],cpcbAq/291_PanBazaar_Guwahati,site_5417
RailwayColony,Guwahati,26.1795873,91.784315,Kamrup,291,[LatLong 26.1795873 91.784315],cpcbAq/291_RailwayColony_Guwahati,site_5073
KharahiyaBasti,Araria,26.1475707,87.4566817,Araria,188,[LatLong 26.1475707 87.4566817],cpcbAq/188_KharahiyaBasti_Araria,site_5539
NewDMOffice,Arrah,25.5626095,84.663264,Bhojpur,193,[LatLong 25.5626095 84.663264],cpcbAq/193_NewDMOffice_Arrah,site_5538
GurdeoNagar,Aurangabad,24.7548649,84.3680054,Aurangabad,189,[LatLong 24.7548649 84.3680054],cpcbAq/189_GurdeoNagar_Aurangabad,site_5544
DRCCAnandpur,Begusarai,25.4445895,86.1396248,Begusarai,191,[LatLong 25.4445895 86.1396248],cpcbAq/191_DRCCAnandpur_Begusarai,site_5540
KamalnathNagar,Bettiah,26.8040197,84.5104212,Pashchimchamparan,211,[LatLong 26.8040197 84.5104212],cpcbAq/211_KamalnathNagar_Bettiah,site_5476
DMOfficeKachariChowk,Bhagalpur,25.2506776,86.9897915,Bhagalpur,192,[LatLong 25.2506776 86.9897915],cpcbAq/192_DMOfficeKachariChowk_Bhagalpur,site_5543
Mayaganj,Bhagalpur,25.2610043,87.0086927,Bhagalpur,192,[LatLong 25.2610043 87.0086927],cpcbAq/192_Mayaganj_Bhagalpur,site_5541
DMColony,BiharSharif,25.2033713,85.5142297,Nalanda,209,[LatLong 25.2033713 85.5142297],cpcbAq/209_DMColony_BiharSharif,site_5481
CentralJail,Buxar,25.5580341,83.9499487,Buxar,194,[LatLong 25.5580341 83.9499487],cpcbAq/194_CentralJail_Buxar,site_5542
DarshanNagar,Chhapra,25.7827064,84.7459203,Saran,218,[LatLong 25.7827064 84.7459203],cpcbAq/218_DarshanNagar_Chhapra,site_5545
TownHall,Darbhanga,26.1513632,85.8913812,Darbhanga,195,[LatLong 26.1513632 85.8913812],cpcbAq/195_TownHall_Darbhanga,site_5477
Collectorate,Gaya,24.7910392,85.006364,Gaya,196,[LatLong 24.7910392 85.006364],cpcbAq/196_Collectorate_Gaya,site_159
Kareemganj,Gaya,24.7953413,84.9882548,Gaya,196,[LatLong 24.7953413 84.9882548],cpcbAq/196_Kareemganj_Gaya,site_5548
SFTIKusdihra,Gaya,24.762915,84.9819212,Gaya,196,[LatLong 24.762915 84.9819212],cpcbAq/196_SFTIKusdihra_Gaya,site_5338
IndustrialArea,Hajipur,25.6927811,85.2401164,Vaishali,224,[LatLong 25.6927811 85.2401164],cpcbAq/224_IndustrialArea_Hajipur,site_5337
Mirchaibari,Katihar,25.5626421,87.5628552,Katihar,201,[LatLong 25.5626421 87.5628552],cpcbAq/201_Mirchaibari_Katihar,site_5546
SDMOfficeKhagra,Kishanganj,26.0982167,87.9450379,Kishanganj,203,[LatLong 26.0982167 87.9450379],cpcbAq/203_SDMOfficeKhagra_Kishanganj,site_5547
ForestRestHouse,Manguraha,26.5638594,84.6073537,Purbachamparan,213,[LatLong 26.5638594 84.6073537],cpcbAq/213_ForestRestHouse_Manguraha,site_5550
GandakColony,Motihari,26.631984,84.9010818,Purbachamparan,213,[LatLong 26.631984 84.9010818],cpcbAq/213_GandakColony_Motihari,site_5478
TownHall,Munger,25.3766685,86.4714129,Munger,207,[LatLong 25.3766685 86.4714129],cpcbAq/207_TownHall_Munger,site_5490
BuddhaColony,Muzaffarpur,26.1166997,85.3995031,Muzaffarpur,208,[LatLong 26.1166997 85.3995031],cpcbAq/208_BuddhaColony_Muzaffarpur,site_5370
MITDaudpurKothi,Muzaffarpur,26.141335,85.3654296,Muzaffarpur,208,[LatLong 26.141335 85.3654296],cpcbAq/208_MITDaudpurKothi_Muzaffarpur,site_5479
MuzaffarpurCollectorate,Muzaffarpur,26.1235085,85.3812437,Muzaffarpur,208,[LatLong 26.1235085 85.3812437],cpcbAq/208_MuzaffarpurCollectorate_Muzaffarpur,site_158
DRMOfficeDanapur,Patna,25.5856237,85.0442993,Patna,212,[LatLong 25.5856237 85.0442993],cpcbAq/212_DRMOfficeDanapur_Patna,site_5336
Govt.HighSchoolShikarpur,Patna,25.5932705,85.2272332,Patna,212,[LatLong 25.5932705 85.2272332],cpcbAq/212_Govt.HighSchoolShikarpur_Patna,site_5335
IGSCPlanetariumComplex,Patna,25.6107873,85.131507,Patna,212,[LatLong 25.6107873 85.131507],cpcbAq/212_IGSCPlanetariumComplex_Patna,site_157
Muradpur,Patna,25.6194928,85.14664,Patna,212,[LatLong 25.6194928 85.14664],cpcbAq/212_Muradpur_Patna,site_5261
RajbansiNagar,Patna,25.603603,85.1119721,Patna,212,[LatLong 25.603603 85.1119721],cpcbAq/212_RajbansiNagar_Patna,site_5262
Samanpura,Patna,25.6074609,85.0845675,Patna,212,[LatLong 25.6074609 85.0845675],cpcbAq/212_Samanpura_Patna,site_5263
MariamNagar,Purnia,25.766642,87.4665884,Purnia,214,[LatLong 25.766642 87.4665884],cpcbAq/214_MariamNagar_Purnia,site_5549
DangiTola,Rajgir,25.0281986,85.420791,Nalanda,209,[LatLong 25.0281986 85.420791],cpcbAq/209_DangiTola_Rajgir,site_5489
PoliceLine,Saharsa,25.8979684,86.5880148,Saharsa,216,[LatLong 25.8979684 86.5880148],cpcbAq/216_PoliceLine_Saharsa,site_5551
DMOfficeKasipur,Samastipur,25.8596222,85.7793189,Samastipur,217,[LatLong 25.8596222 85.7793189],cpcbAq/217_DMOfficeKasipur_Samastipur,site_5552
DadaPeer,Sasaram,24.951303,84.0021995,Rohtas,215,[LatLong 24.951303 84.0021995],cpcbAq/215_DadaPeer_Sasaram,site_5485
ChitraguptaNagar,Siwan,26.2298955,84.3561766,Siwan,222,[LatLong 26.2298955 84.3561766],cpcbAq/222_ChitraguptaNagar_Siwan,site_5553
Sector22,Chandigarh,30.7320385,76.7726334,Chandigarh,44,[LatLong 30.7320385 76.7726334],cpcbAq/044_Sector22_Chandigarh,site_5491
Sector25,Chandigarh,30.7512305,76.7583714,Chandigarh,44,[LatLong 30.7512305 76.7583714],cpcbAq/044_Sector25_Chandigarh,site_5127
Sector53,Chandigarh,30.7163083,76.7284448,Chandigarh,44,[LatLong 30.7163083 76.7284448],cpcbAq/044_Sector53_Chandigarh,site_5582
CivicCenter,Bhilai,21.1870265,81.3426323,Durg,378,[LatLong 21.1870265 81.3426323],cpcbAq/378_CivicCenter_Bhilai,site_5536
Mangala,Bilaspur,22.097191,82.1293881,Bilaspur,375,[LatLong 22.097191 82.1293881],cpcbAq/375_Mangala_Bilaspur,site_5503
Alipur,Delhi,28.7972263,77.1331363,Delhi,79,[LatLong 28.7972263 77.1331363],cpcbAq/079_Alipur_Delhi,site_5024
AnandVihar,Delhi,28.650218,77.3027059,Delhi,79,[LatLong 28.650218 77.3027059],cpcbAq/079_AnandVihar_Delhi,site_301
AshokVihar,Delhi,28.6909791,77.1765239,Delhi,79,[LatLong 28.6909791 77.1765239],cpcbAq/079_AshokVihar_Delhi,site_1420
AyaNagar,Delhi,28.4720443,77.1329417,Delhi,79,[LatLong 28.4720443 77.1329417],cpcbAq/079_AyaNagar_Delhi,site_108
Bawana,Delhi,28.793229,77.0483355,Delhi,79,[LatLong 28.793229 77.0483355],cpcbAq/079_Bawana_Delhi,site_1560
BurariCrossing,Delhi,28.7285,77.19738,Delhi,79,[LatLong 28.7285 77.19738],cpcbAq/079_BurariCrossing_Delhi,site_104
CRRIMathuraRoad,Delhi,28.5517202,77.2750344,Delhi,79,[LatLong 28.5517202 77.2750344],cpcbAq/079_CRRIMathuraRoad_Delhi,site_103
ChandniChowk,Delhi,28.6505331,77.230337,Delhi,79,[LatLong 28.6505331 77.230337],cpcbAq/079_ChandniChowk_Delhi,site_5393
DTU,Delhi,28.7499867,77.1183137,Delhi,79,[LatLong 28.7499867 77.1183137],cpcbAq/079_DTU_Delhi,site_118
DrKarniSinghShootingRange,Delhi,28.4997268,77.2670954,Delhi,79,[LatLong 28.4997268 77.2670954],cpcbAq/079_DrKarniSinghShootingRange_Delhi,site_1421
Dwarka,Delhi,28.5720379,77.070837,Delhi,79,[LatLong 28.5720379 77.070837],cpcbAq/079_Dwarka_Delhi,site_1422
IGIAirport,Delhi,28.5550838,77.0844015,Delhi,79,[LatLong 28.5550838 77.0844015],cpcbAq/079_IGIAirport_Delhi,site_106
IHBASDilshadGarden,Delhi,28.6826275,77.3049532,Delhi,79,[LatLong 28.6826275 77.3049532],cpcbAq/079_IHBASDilshadGarden_Delhi,site_114
ITO,Delhi,28.6308294,77.2505733,Delhi,79,[LatLong 28.6308294 77.2505733],cpcbAq/079_ITO_Delhi,site_117
Jahangirpuri,Delhi,28.7296171,77.1666313,Delhi,79,[LatLong 28.7296171 77.1666313],cpcbAq/079_Jahangirpuri_Delhi,site_1423
JawaharlalNehruStadium,Delhi,28.5833047,77.2333304,Delhi,79,[LatLong 28.5833047 77.2333304],cpcbAq/079_JawaharlalNehruStadium_Delhi,site_1424
LodhiRoad,Delhi,28.5910626,77.2280791,Delhi,79,[LatLong 28.5910626 77.2280791],cpcbAq/079_LodhiRoad_Delhi,site_5395
MajorDhyanChandNationalStadium,Delhi,28.612569,77.2367984,Delhi,79,[LatLong 28.612569 77.2367984],cpcbAq/079_MajorDhyanChandNationalStadium_Delhi,site_1425
MandirMarg,Delhi,28.6341752,77.2004746,Delhi,79,[LatLong 28.6341752 77.2004746],cpcbAq/079_MandirMarg_Delhi,site_122
Mundka,Delhi,28.6823144,77.034937,Delhi,79,[LatLong 28.6823144 77.034937],cpcbAq/079_Mundka_Delhi,site_1561
NSITDwarka,Delhi,28.6100216,77.0379647,Delhi,79,[LatLong 28.6100216 77.0379647],cpcbAq/079_NSITDwarka_Delhi,site_115
Najafgarh,Delhi,28.6090126,76.9854526,Delhi,79,[LatLong 28.6090126 76.9854526],cpcbAq/079_Najafgarh_Delhi,site_1427
Narela,Delhi,28.8548818,77.0892151,Delhi,79,[LatLong 28.8548818 77.0892151],cpcbAq/079_Narela_Delhi,site_1426
NehruNagar,Delhi,28.5706035,77.2505733,Delhi,79,[LatLong 28.5706035 77.2505733],cpcbAq/079_NehruNagar_Delhi,site_1429
NorthCampus,Delhi,28.6876514,77.2102816,Delhi,79,[LatLong 28.6876514 77.2102816],cpcbAq/079_NorthCampus_Delhi,site_105
OkhlaPhase,Delhi,28.5421887,77.2782501,Delhi,79,[LatLong 28.5421887 77.2782501],cpcbAq/079_OkhlaPhase_Delhi,site_1428
Patparganj,Delhi,28.6347308,77.3045711,Delhi,79,[LatLong 28.6347308 77.3045711],cpcbAq/079_Patparganj_Delhi,site_1431
PunjabiBagh,Delhi,28.6706933,77.1284765,Delhi,79,[LatLong 28.6706933 77.1284765],cpcbAq/079_PunjabiBagh_Delhi,site_125
Pusa,Delhi,28.6376724,77.1571443,Delhi,79,[LatLong 28.6376724 77.1571443],cpcbAq/079_Pusa_Delhi,site_1563
RKPuram,Delhi,28.5660075,77.1767435,Delhi,79,[LatLong 28.5660075 77.1767435],cpcbAq/079_RKPuram_Delhi,site_124
Rohini,Delhi,28.7382677,77.0822151,Delhi,79,[LatLong 28.7382677 77.0822151],cpcbAq/079_Rohini_Delhi,site_1430
Shadipur,Delhi,28.651027,77.1562196,Delhi,79,[LatLong 28.651027 77.1562196],cpcbAq/079_Shadipur_Delhi,site_113
Sirifort,Delhi,28.5505827,77.214799,Delhi,79,[LatLong 28.5505827 77.214799],cpcbAq/079_Sirifort_Delhi,site_119
SoniaVihar,Delhi,28.7332472,77.2495891,Delhi,79,[LatLong 28.7332472 77.2495891],cpcbAq/079_SoniaVihar_Delhi,site_1432
SriAurobindoMarg,Delhi,28.5562223,77.2063073,Delhi,79,[LatLong 28.5562223 77.2063073],cpcbAq/079_SriAurobindoMarg_Delhi,site_1562
VivekVihar,Delhi,28.6712458,77.3176541,Gautambuddhanagar,144,[LatLong 28.6712458 77.3176541],cpcbAq/144_VivekVihar_Delhi,site_1435
Wazirpur,Delhi,28.6975444,77.1604397,Delhi,79,[LatLong 28.6975444 77.1604397],cpcbAq/079_Wazirpur_Delhi,site_1434
Chandkheda,Ahmedabad,23.109098,72.5849179,Gandhinagar,446,[LatLong 23.109098 72.5849179],cpcbAq/446_Chandkheda_Ahmedabad,site_5453
Gyaspur,Ahmedabad,22.9691813,72.5382069,Ahmadabad,438,[LatLong 22.9691813 72.5382069],cpcbAq/438_Gyaspur_Ahmedabad,site_5450
Maninagar,Ahmedabad,22.995165,72.604097,Ahmadabad,438,[LatLong 22.995165 72.604097],cpcbAq/438_Maninagar_Ahmedabad,site_308
Raikhad,Ahmedabad,23.0189588,72.5811117,Ahmadabad,438,[LatLong 23.0189588 72.5811117],cpcbAq/438_Raikhad_Ahmedabad,site_5452
Rakhial,Ahmedabad,23.0213204,72.6239242,Ahmadabad,438,[LatLong 23.0213204 72.6239242],cpcbAq/438_Rakhial_Ahmedabad,site_5451
SACISROBopal,Ahmedabad,23.0407417,72.4564222,Ahmadabad,438,[LatLong 23.0407417 72.4564222],cpcbAq/438_SACISROBopal_Ahmedabad,site_5454
SACISROSatellite,Ahmedabad,23.0277933,72.518888,Ahmadabad,438,[LatLong 23.0277933 72.518888],cpcbAq/438_SACISROSatellite_Ahmedabad,site_5455
SVPIAirportHansol,Ahmedabad,23.0734262,72.626571,Ahmadabad,438,[LatLong 23.0734262 72.626571],cpcbAq/438_SVPIAirportHansol_Ahmedabad,site_5456
SardarVallabhbhaiPatelStadium,Ahmedabad,23.0418636,72.5635863,Ahmadabad,438,[LatLong 23.0418636 72.5635863],cpcbAq/438_SardarVallabhbhaiPatelStadium_Ahmedabad,site_5449
GIDC,Ankleshwar,21.6143446,73.0115597,Bharuch,442,[LatLong 21.6143446 73.0115597],cpcbAq/442_GIDC_Ankleshwar,site_5065
GIFTCity,Gandhinagar,23.1586396,72.6831136,Gandhinagar,446,[LatLong 23.1586396 72.6831136],cpcbAq/446_GIFTCity_Gandhinagar,site_5458
IIPHGLekawada,Gandhinagar,23.2446495,72.6873825,Gandhinagar,446,[LatLong 23.2446495 72.6873825],cpcbAq/446_IIPHGLekawada_Gandhinagar,site_5457
Sector10,Gandhinagar,23.2150981,72.6542732,Gandhinagar,446,[LatLong 23.2150981 72.6542732],cpcbAq/446_Sector10_Gandhinagar,site_5066
GIDC,Nandesari,22.406643,73.0920622,Vadodara,461,[LatLong 22.406643 73.0920622],cpcbAq/461_GIDC_Nandesari,site_5274
Phase,1GIDC,20.3521472,72.9135734,Valsad,462,[LatLong 20.3521472 72.9135734],cpcbAq/462_Phase_1GIDC,site_5071
Phase,4GIDC,22.9702828,72.6476393,Ahmadabad,438,[LatLong 22.9702828 72.6476393],cpcbAq/438_Phase_4GIDC,site_5067
PattiMehar,Ambala,30.3778718,76.7733263,Ambala,58,[LatLong 30.3778718 76.7733263],cpcbAq/058_PattiMehar_Ambala,site_5052
AryaNagar,Bahadurgarh,28.6771177,76.9282948,Jhajjar,64,[LatLong 28.6771177 76.9282948],cpcbAq/064_AryaNagar_Bahadurgarh,site_5045
NathuColony,Ballabgarh,28.338774,77.3205629,Faridabad,60,[LatLong 28.338774 77.3205629],cpcbAq/060_NathuColony_Ballabgarh,site_5060
HBColony,Bhiwani,28.8082043,76.1361016,Bhiwani,59,[LatLong 28.8082043 76.1361016],cpcbAq/059_HBColony_Bhiwani,site_5047
MiniSecretariat,CharkhiDadri,28.5946828,76.2755277,Bhiwani,59,[LatLong 28.5946828 76.2755277],cpcbAq/059_MiniSecretariat_CharkhiDadri,site_5339
MunicipalCorporationOffice,Dharuhera,28.2056606,76.7914639,Rewari,72,[LatLong 28.2056606 76.7914639],cpcbAq/072_MunicipalCorporationOffice_Dharuhera,site_5044
NewIndustrialTown,Faridabad,28.3922002,77.301675,Faridabad,60,[LatLong 28.3922002 77.301675],cpcbAq/060_NewIndustrialTown_Faridabad,site_5340
Sector11,Faridabad,28.3704165,77.3220128,Faridabad,60,[LatLong 28.3704165 77.3220128],cpcbAq/060_Sector11_Faridabad,site_5342
Sector30,Faridabad,28.4425186,77.3223915,Faridabad,60,[LatLong 28.4425186 77.3223915],cpcbAq/060_Sector30_Faridabad,site_5341
Sector16A,Faridabad,28.4060902,77.3184825,Faridabad,60,[LatLong 28.4060902 77.3184825],cpcbAq/060_Sector16A_Faridabad,site_263
HudaSector,Fatehabad,29.5030525,75.4737974,Fatehabad,61,[LatLong 29.5030525 75.4737974],cpcbAq/061_HudaSector_Fatehabad,site_5054
NISEGwalPahari,Gurugram,28.4235473,77.1489412,Gurgaon,62,[LatLong 28.4235473 77.1489412],cpcbAq/062_NISEGwalPahari_Gurugram,site_5025
Sector51,Gurugram,28.4320397,77.0686159,Gurgaon,62,[LatLong 28.4320397 77.0686159],cpcbAq/062_Sector51_Gurugram,site_5345
TeriGram,Gurugram,28.4254728,77.147301,Gurgaon,62,[LatLong 28.4254728 77.147301],cpcbAq/062_TeriGram_Gurugram,site_5344
VikasSadan,Gurugram,28.4501238,77.0284938,Gurgaon,62,[LatLong 28.4501238 77.0284938],cpcbAq/062_VikasSadan_Gurugram,site_146
UrbanEstateII,Hisar,29.1405535,75.7396802,Hisar,63,[LatLong 29.1405535 75.7396802],cpcbAq/063_UrbanEstateII_Hisar,site_5057
PoliceLines,Jind,29.3069655,76.3478097,Jind,65,[LatLong 29.3069655 76.3478097],cpcbAq/065_PoliceLines_Jind,site_5056
RishiNagar,Kaithal,29.8029465,76.4143664,Kaithal,66,[LatLong 29.8029465 76.4143664],cpcbAq/066_RishiNagar_Kaithal,site_5072
Sector12,Karnal,29.6955341,76.9995868,Karnal,67,[LatLong 29.6955341 76.9995868],cpcbAq/067_Sector12_Karnal,site_5049
Sector7,Kurukshetra,29.9692794,76.8735374,Kurukshetra,68,[LatLong 29.9692794 76.8735374],cpcbAq/068_Sector7_Kurukshetra,site_5043
GeneralHospital,Mandikhera,27.8966318,76.9916675,Gurgaon,62,[LatLong 27.8966318 76.9916675],cpcbAq/062_GeneralHospital_Mandikhera,site_5055
Sector2IMT,Manesar,28.3654839,76.9369384,Gurgaon,62,[LatLong 28.3654839 76.9369384],cpcbAq/062_Sector2IMT_Manesar,site_5039
ShastriNagar,Narnaul,28.0636597,76.1116997,Mahendragarh,69,[LatLong 28.0636597 76.1116997],cpcbAq/069_ShastriNagar_Narnaul,site_5053
ShyamNagar,Palwal,28.1482612,77.3331604,Faridabad,60,[LatLong 28.1482612 77.3331604],cpcbAq/060_ShyamNagar_Palwal,site_5050
Sector6,Panchkula,30.706579,76.8545201,Panchkula,70,[LatLong 30.706579 76.8545201],cpcbAq/070_Sector6_Panchkula,site_161
Sector18,Panipat,29.4362833,76.9772675,Panipat,71,[LatLong 29.4362833 76.9772675],cpcbAq/071_Sector18_Panipat,site_5048
MDUniversity,Rohtak,28.8769643,76.6210539,Rohtak,73,[LatLong 28.8769643 76.6210539],cpcbAq/073_MDUniversity_Rohtak,site_147
Fblock,Sirsa,29.5363692,75.015843,Sirsa,74,[LatLong 29.5363692 75.015843],cpcbAq/074_Fblock_Sirsa,site_5051
Murthal,Sonipat,29.0315896,77.0723807,Sonepat,75,[LatLong 29.0315896 77.0723807],cpcbAq/075_Murthal_Sonipat,site_5041
GobindPura,YamunaNagar,30.1501492,77.2850239,Yamunanagar,76,[LatLong 30.1501492 77.2850239],cpcbAq/076_GobindPura_YamunaNagar,site_5046
HIMUDAComplexPhase,Solan,30.9395251,76.8040021,Solan,25,[LatLong 30.9395251 76.8040021],cpcbAq/025_HIMUDAComplexPhase_Solan,site_5586
Rajbagh,Srinagar,34.0661987,74.8287807,Bagdam,13,[LatLong 34.0661987 74.8287807],cpcbAq/013_Rajbagh_Srinagar,site_5424
TataStadium,Jorapokhar,23.7082799,86.4127228,Dhanbad,325,[LatLong 23.7082799 86.4127228],cpcbAq/325_TataStadium_Jorapokhar,site_254
Vidayagiri,Bagalkot,16.1756049,75.6586295,Bagalkot,524,[LatLong 16.1756049 75.6586295],cpcbAq/524_Vidayagiri_Bagalkot,site_5264
BTMLayout,Bengaluru,12.9165757,77.6101163,Bangaloreurban,525,[LatLong 12.9165757 77.6101163],cpcbAq/525_BTMLayout_Bengaluru,site_162
BWSSBKadabesanahalli,Bengaluru,12.9473227,77.6982627,Bangaloreurban,525,[LatLong 12.9473227 77.6982627],cpcbAq/525_BWSSBKadabesanahalli_Bengaluru,site_164
BapujiNagar,Bengaluru,12.95678,77.5397293,Bangaloreurban,525,[LatLong 12.95678 77.5397293],cpcbAq/525_BapujiNagar_Bengaluru,site_1553
CityRailwayStation,Bengaluru,12.9758403,77.5657561,Bangaloreurban,525,[LatLong 12.9758403 77.5657561],cpcbAq/525_CityRailwayStation_Bengaluru,site_165
Hebbal,Bengaluru,13.0353557,77.5987874,Bangaloreurban,525,[LatLong 13.0353557 77.5987874],cpcbAq/525_Hebbal_Bengaluru,site_1554
HombegowdaNagar,Bengaluru,12.9375448,77.5948946,Bangaloreurban,525,[LatLong 12.9375448 77.5948946],cpcbAq/525_HombegowdaNagar_Bengaluru,site_1555
Jayanagar5thBlock,Bengaluru,12.920789,77.5841502,Bangaloreurban,525,[LatLong 12.920789 77.5841502],cpcbAq/525_Jayanagar5thBlock_Bengaluru,site_1556
Peenya,Bengaluru,13.0285133,77.5196763,Bangaloreurban,525,[LatLong 13.0285133 77.5196763],cpcbAq/525_Peenya_Bengaluru,site_163
SaneguravaHalli,Bengaluru,12.9715987,77.5945627,Bangaloreurban,525,[LatLong 12.9715987 77.5945627],cpcbAq/525_SaneguravaHalli_Bengaluru,site_166
SilkBoard,Bengaluru,12.9177099,77.6237863,Bangaloreurban,525,[LatLong 12.9177099 77.6237863],cpcbAq/525_SilkBoard_Bengaluru,site_1558
Naubad,Bidar,17.93357,77.4788014,Bidar,529,[LatLong 17.93357 77.4788014],cpcbAq/529_Naubad_Bidar,site_5418
Urban,Chamarajanagar,11.9271328,76.9326167,Chamrajnagar,531,[LatLong 11.9271328 76.9326167],cpcbAq/531_Urban_Chamarajanagar,site_5124
ChikkaballapurRural,Chikkaballapur,13.4290654,77.7330474,Kolar,542,[LatLong 13.4290654 77.7330474],cpcbAq/542_ChikkaballapurRural_Chikkaballapur,site_1557
KalyanaNagara,Chikkamagaluru,13.3230247,75.7967371,Chikmagalur,532,[LatLong 13.3230247 75.7967371],cpcbAq/532_KalyanaNagara_Chikkamagaluru,site_5265
DevarajUrsBadavane,Davanagere,14.4758107,75.9071272,Davanagere,535,[LatLong 14.4758107 75.9071272],cpcbAq/535_DevarajUrsBadavane_Davanagere,site_5422
PanchalNagar,Gadag,15.4195912,75.6397204,Gadag,537,[LatLong 15.4195912 75.6397204],cpcbAq/537_PanchalNagar_Gadag,site_5419
B.Katihalli,Hassan,13.0123203,76.1334449,Hassan,539,[LatLong 13.0123203 76.1334449],cpcbAq/539_B.Katihalli_Hassan,site_5448
AshwiniNagar,Haveri,14.7933682,75.3922237,Haveri,540,[LatLong 14.7933682 75.3922237],cpcbAq/540_AshwiniNagar_Haveri,site_5420
DeshpandeNagar,Hubballi,15.3547598,75.1384848,Dharwad,536,[LatLong 15.3547598 75.1384848],cpcbAq/536_DeshpandeNagar_Hubballi,site_1447
LalBahadurShastriNagar,Kalaburagi,17.3203897,76.8194767,Gulbarga,538,[LatLong 17.3203897 76.8194767],cpcbAq/538_LalBahadurShastriNagar_Kalaburagi,site_1565
TamakaInd.Area,Kolar,13.1332532,78.1721958,Kolar,542,[LatLong 13.1332532 78.1721958],cpcbAq/542_TamakaInd.Area_Kolar,site_1551
DiwatorNagar,Koppal,15.3500492,76.1646475,Koppal,543,[LatLong 15.3500492 76.1646475],cpcbAq/543_DiwatorNagar_Koppal,site_5415
StuartHill,Madikeri,12.4152774,75.7458708,Kodagu,541,[LatLong 12.4152774 75.7458708],cpcbAq/541_StuartHill_Madikeri,site_5391
Kadri,Mangalore,12.8804608,74.8591578,Dakshinkannad,534,[LatLong 12.8804608 74.8591578],cpcbAq/534_Kadri_Mangalore,site_5421
Hebbal1stStage,Mysuru,12.3500813,76.6209903,Mysore,545,[LatLong 12.3500813 76.6209903],cpcbAq/545_Hebbal1stStage_Mysuru,site_5125
HajiColony,Raichur,16.2108191,77.3482352,Raichur,546,[LatLong 16.2108191 77.3482352],cpcbAq/546_HajiColony_Raichur,site_5414
VijayNagar,Ramanagara,12.7324268,77.2902266,Bangalorerural,526,[LatLong 12.7324268 77.2902266],cpcbAq/526_VijayNagar_Ramanagara,site_5255
VinobaNagara,Shivamogga,13.945395,75.5538712,Shimoga,547,[LatLong 13.945395 75.5538712],cpcbAq/547_VinobaNagara_Shivamogga,site_5266
Brahmagiri,Udupi,13.3368614,74.7395159,Udupi,549,[LatLong 13.3368614 74.7395159],cpcbAq/549_Brahmagiri_Udupi,site_5433
Ibrahimpur,Vijayapura,16.8028639,75.726973,Bijapur,636,[LatLong 16.8028639 75.726973],cpcbAq/636_Ibrahimpur_Vijayapura,site_5267
CollectorOffice,Yadgir,16.751388,77.1363297,Gulbarga,538,[LatLong 16.751388 77.1363297],cpcbAq/538_CollectorOffice_Yadgir,site_5254
Udyogamandal,Eloor,10.0737878,76.3014896,Ernakulam,555,[LatLong 10.0737878 76.3014896],cpcbAq/555_Udyogamandal_Eloor,site_5105
Kacheripady,Ernakulam,9.9882801,76.2812195,Ernakulam,555,[LatLong 9.9882801 76.2812195],cpcbAq/555_Kacheripady_Ernakulam,site_5272
Thavakkara,Kannur,11.8701516,75.3690595,Kannur,557,[LatLong 11.8701516 75.3690595],cpcbAq/557_Thavakkara_Kannur,site_5276
Vyttila,Kochi,9.968199,76.3182346,Ernakulam,555,[LatLong 9.968199 76.3182346],cpcbAq/555_Vyttila_Kochi,site_5270
Polayathode,Kollam,8.8787049,76.6073332,Kollam,559,[LatLong 8.8787049 76.6073332],cpcbAq/559_Polayathode_Kollam,site_5334
Palayam,Kozhikode,11.2488252,75.7838995,Kozhikode,561,[LatLong 11.2488252 75.7838995],cpcbAq/561_Palayam_Kozhikode,site_5271
Kariavattom,Thiruvananthapuram,8.5678435,76.8908318,Thiruvananthapuram,565,[LatLong 8.5678435 76.8908318],cpcbAq/565_Kariavattom_Thiruvananthapuram,site_5331
Plammoodu,Thiruvananthapuram,8.5140567,76.9477422,Thiruvananthapuram,565,[LatLong 8.5140567 76.9477422],cpcbAq/565_Plammoodu_Thiruvananthapuram,site_252
CorporationGround,Thrissur,10.5276416,76.2144349,Thrissur,566,[LatLong 10.5276416 76.2144349],cpcbAq/566_CorporationGround_Thrissur,site_5390
TTNagar,Bhopal,23.2357524,77.3986471,Bhopal,396,[LatLong 23.2357524 77.3986471],cpcbAq/396_TTNagar_Bhopal,site_5247
ShrivastavColony,Damoh,23.8184923,79.4338188,Damoh,400,[LatLong 23.8184923 79.4338188],cpcbAq/400_ShrivastavColony_Damoh,site_5040
BhopalChauraha,Dewas,22.9687824,76.0635763,Dewas,402,[LatLong 22.9687824 76.0635763],cpcbAq/402_BhopalChauraha_Dewas,site_1404
CityCenter,Gwalior,26.2035227,78.1920664,Gwalior,407,[LatLong 26.2035227 78.1920664],cpcbAq/407_CityCenter_Gwalior,site_5273
PhoolBagh,Gwalior,26.2103607,78.1692689,Gwalior,407,[LatLong 26.2103607 78.1692689],cpcbAq/407_PhoolBagh_Gwalior,site_5275
ChhotiGwaltoli,Indore,22.7152096,75.8700466,Indore,410,[LatLong 22.7152096 75.8700466],cpcbAq/410_ChhotiGwaltoli_Indore,site_5248
Marhatal,Jabalpur,23.1670639,79.9339608,Jabalpur,411,[LatLong 23.1670639 79.9339608],cpcbAq/411_Marhatal_Jabalpur,site_5249
GoleBazar,Katni,23.8327424,80.3978186,Katni,413,[LatLong 23.8327424 80.3978186],cpcbAq/413_GoleBazar_Katni,site_5250
Sahilara,Maihar,24.2609738,80.7186697,Satna,426,[LatLong 24.2609738 80.7186697],cpcbAq/426_Sahilara_Maihar,site_5068
SectorDIndustrialArea,Raisen,23.0992796,77.5114731,Raisen,421,[LatLong 23.0992796 77.5114731],cpcbAq/421_SectorDIndustrialArea_Raisen,site_1403
Sector2IndustrialArea,Dhar,22.611121,75.6772689,Dhar,403,[LatLong 22.611121 75.6772689],cpcbAq/403_Sector2IndustrialArea_Dhar,site_1402
ShasthriNagar,Ratlam,23.3312468,75.0432032,Ratlam,423,[LatLong 23.3312468 75.0432032],cpcbAq/423_ShasthriNagar_Ratlam,site_5042
DeenDayalNagar,Sagar,23.8641966,78.806407,Sagar,425,[LatLong 23.8641966 78.806407],cpcbAq/425_DeenDayalNagar_Sagar,site_5269
BandhavgarColony,Satna,24.5798734,80.8557684,Satna,426,[LatLong 24.5798734 80.8557684],cpcbAq/426_BandhavgarColony_Satna,site_1433
SuryakiranBhawanNCL,Singrauli,24.1079747,82.6454746,Sidhi,433,[LatLong 24.1079747 82.6454746],cpcbAq/433_SuryakiranBhawanNCL_Singrauli,site_1401
MahakaleshwarTemple,Ujjain,23.1827177,75.7682178,Ujjain,435,[LatLong 23.1827177 75.7682178],cpcbAq/435_MahakaleshwarTemple_Ujjain,site_1400
MoreChowkWaluj,Aurangabad,19.8406027,75.2466299,Aurangabad,189,[LatLong 19.8406027 75.2466299],cpcbAq/189_MoreChowkWaluj_Aurangabad,site_198
Chandrapur,Chandrapur,19.9615398,79.2961468,Chandrapur,473,[LatLong 19.9615398 79.2961468],cpcbAq/473_Chandrapur_Chandrapur,site_271
MIDCKhutala,Chandrapur,19.9808656,79.229929,Chandrapur,473,[LatLong 19.9808656 79.229929],cpcbAq/473_MIDCKhutala_Chandrapur,site_295
Khadakpada,Kalyan,19.2592249,73.1279269,Thane,497,[LatLong 19.2592249 73.1279269],cpcbAq/497_Khadakpada_Kalyan,site_5118
BandraKurlaComplex,Mumbai,19.0687893,72.8702647,Greaterbombay,482,[LatLong 19.0687893 72.8702647],cpcbAq/482_BandraKurlaComplex_Mumbai,site_5392
Bandra,Mumbai,19.0595596,72.8295287,Greaterbombay,482,[LatLong 19.0595596 72.8295287],cpcbAq/482_Bandra_Mumbai,site_168
BorivaliEast,Mumbai,19.2297814,72.8608559,Greaterbombay,482,[LatLong 19.2297814 72.8608559],cpcbAq/482_BorivaliEast_Mumbai,site_5400
Chakala,AndheriEast,19.1097712,72.8582672,Greaterbombay,482,[LatLong 19.1097712 72.8582672],cpcbAq/482_Chakala_AndheriEast,site_5399
ChhatrapatiShivajiIntlAirport,Mumbai,19.0974373,72.8745017,Greaterbombay,482,[LatLong 19.0974373 72.8745017],cpcbAq/482_ChhatrapatiShivajiIntlAirport_Mumbai,site_5107
Colaba,Mumbai,18.9067031,72.8147123,Greaterbombay,482,[LatLong 18.9067031 72.8147123],cpcbAq/482_Colaba_Mumbai,site_5120
Deonar,Mumbai,19.0447048,72.9102511,Greaterbombay,482,[LatLong 19.0447048 72.9102511],cpcbAq/482_Deonar_Mumbai,site_5396
KandivaliEast,Mumbai,19.2004765,72.8736892,Greaterbombay,482,[LatLong 19.2004765 72.8736892],cpcbAq/482_KandivaliEast_Mumbai,site_5412
Khindipada,BhandupWest,19.1599078,72.9239095,Greaterbombay,482,[LatLong 19.1599078 72.9239095],cpcbAq/482_Khindipada_BhandupWest,site_5397
Kurla,Mumbai,19.0726295,72.8844721,Greaterbombay,482,[LatLong 19.0726295 72.8844721],cpcbAq/482_Kurla_Mumbai,site_5104
MaladWest,Mumbai,19.1889541,72.835543,Greaterbombay,482,[LatLong 19.1889541 72.835543],cpcbAq/482_MaladWest_Mumbai,site_5402
Mazgaon,Mumbai,18.9644251,72.8421341,Greaterbombay,482,[LatLong 18.9644251 72.8421341],cpcbAq/482_Mazgaon_Mumbai,site_5394
MulundWest,Mumbai,19.1725542,72.942537,Greaterbombay,482,[LatLong 19.1725542 72.942537],cpcbAq/482_MulundWest_Mumbai,site_5413
NavyNagar,Colaba,18.8979567,72.8131432,Greaterbombay,482,[LatLong 18.8979567 72.8131432],cpcbAq/482_NavyNagar_Colaba,site_5398
Powai,Mumbai,19.1175993,72.9059747,Greaterbombay,482,[LatLong 19.1175993 72.9059747],cpcbAq/482_Powai_Mumbai,site_5112
SiddharthNagar,Worli,18.9978358,72.8138818,Greaterbombay,482,[LatLong 18.9978358 72.8138818],cpcbAq/482_SiddharthNagar_Worli,site_5403
Sion,Mumbai,19.0390214,72.8618952,Greaterbombay,482,[LatLong 19.0390214 72.8618952],cpcbAq/482_Sion_Mumbai,site_5119
VasaiWest,Mumbai,19.3664631,72.8155136,Thane,497,[LatLong 19.3664631 72.8155136],cpcbAq/497_VasaiWest_Mumbai,site_5102
VileParleWest,Mumbai,19.1071283,72.8367535,Greaterbombay,482,[LatLong 19.1071283 72.8367535],cpcbAq/482_VileParleWest_Mumbai,site_5106
Worli,Mumbai,18.9986406,72.8173599,Greaterbombay,482,[LatLong 18.9986406 72.8173599],cpcbAq/482_Worli_Mumbai,site_5115
OppGPOCivilLines,Nagpur,21.153277,79.069518,Nagpur,484,[LatLong 21.153277 79.069518],cpcbAq/484_OppGPOCivilLines_Nagpur,site_303
GangapurRoad,Nashik,20.0168226,73.735682,Nashik,487,[LatLong 20.0168226 73.735682],cpcbAq/487_GangapurRoad_Nashik,site_304
Airoli,NaviMumbai,19.159014,72.9985686,Greaterbombay,482,[LatLong 19.159014 72.9985686],cpcbAq/482_Airoli_NaviMumbai,site_261
Mahape,NaviMumbai,19.1182937,73.0275875,Greaterbombay,482,[LatLong 19.1182937 73.0275875],cpcbAq/482_Mahape_NaviMumbai,site_5114
Nerul,NaviMumbai,19.0338457,73.0195871,Greaterbombay,482,[LatLong 19.0338457 73.0195871],cpcbAq/482_Nerul_NaviMumbai,site_5103
Sector19A,Mumbai,19.0280168,73.0265071,Greaterbombay,482,[LatLong 19.0280168 73.0265071],cpcbAq/482_Sector19A_Mumbai,site_5401
Alandi,Pune,18.6782865,73.8950336,Pune,490,[LatLong 18.6782865 73.8950336],cpcbAq/490_Alandi_Pune,site_5405
Bhosari,Pune,18.6320627,73.8467978,Pune,490,[LatLong 18.6320627 73.8467978],cpcbAq/490_Bhosari_Pune,site_5406
Hadapsar,Pune,18.508934,73.9259102,Pune,490,[LatLong 18.508934 73.9259102],cpcbAq/490_Hadapsar_Pune,site_5407
KarveRoad,Pune,18.5033095,73.8197888,Pune,490,[LatLong 18.5033095 73.8197888],cpcbAq/490_KarveRoad_Pune,site_292
MIT,Kothrud,18.5177542,73.8148826,Pune,490,[LatLong 18.5177542 73.8148826],cpcbAq/490_MIT_Kothrud,site_5410
MhadaColony,Pune,18.5734634,73.9109977,Pune,490,[LatLong 18.5734634 73.9109977],cpcbAq/490_MhadaColony_Pune,site_5404
RevenueColony,Shivajinagar,18.5282786,73.8470523,Pune,490,[LatLong 18.5282786 73.8470523],cpcbAq/490_RevenueColony_Shivajinagar,site_5409
TransportNagar,Nigdi,18.6642824,73.7639658,Pune,490,[LatLong 18.6642824 73.7639658],cpcbAq/490_TransportNagar_Nigdi,site_5408
Solapur,Solapur,17.6599188,75.9063906,Solapur,496,[LatLong 17.6599188 75.9063906],cpcbAq/496_Solapur_Solapur,site_302
PimpleshwarMandir,Thane,19.1890934,72.9622382,Greaterbombay,482,[LatLong 19.1890934 72.9622382],cpcbAq/482_PimpleshwarMandir_Thane,site_305
DMCollegeofScience,Imphal,24.8216168,93.9429582,Westimphal,256,[LatLong 24.8216168 93.9429582],cpcbAq/256_DMCollegeofScience_Imphal,site_5592
ManipurUniversity,Imphal,24.7522876,93.9280425,Westimphal,256,[LatLong 24.7522876 93.9280425],cpcbAq/256_ManipurUniversity_Imphal,site_5591
JNStadium,Shillong,25.5801,91.8940855,Eastkhasihills,274,[LatLong 25.5801 91.8940855],cpcbAq/274_JNStadium_Shillong,site_5593
Lumpyngngad,Shillong,25.5585941,91.8984865,Eastkhasihills,274,[LatLong 25.5585941 91.8984865],cpcbAq/274_Lumpyngngad_Shillong,site_5131
Sikulpuikawn,Aizawl,23.7173952,92.7181174,Aizawl,261,[LatLong 23.7173952 92.7181174],cpcbAq/261_Sikulpuikawn_Aizawl,site_5346
PWDJuction,Kohima,25.6615389,94.1032732,Kohima,245,[LatLong 25.6615389 94.1032732],cpcbAq/245_PWDJuction_Kohima,site_5375
GMOffice,Brajrajnagar,21.8546923,83.9247995,Jharsuguda,357,[LatLong 21.8546923 83.9247995],cpcbAq/357_GMOffice_Brajrajnagar,site_1410
TalcherCoalfields,Talcher,20.9501027,85.216816,Angul,344,[LatLong 20.9501027 85.216816],cpcbAq/344_TalcherCoalfields_Talcher,site_1408
JawaharNagar,Puducherry,11.9306033,79.8027077,Puducherry,600,[LatLong 11.9306033 79.8027077],cpcbAq/600_JawaharNagar_Puducherry,site_5423
GoldenTemple,Amritsar,31.6199803,74.8764849,Amritsar,27,[LatLong 31.6199803 74.8764849],cpcbAq/027_GoldenTemple_Amritsar,site_256
HardevNagar,Bathinda,30.2420588,74.9175889,Bathinda,28,[LatLong 30.2420588 74.9175889],cpcbAq/028_HardevNagar_Bathinda,site_1549
CivilLine,Jalandhar,31.3208006,75.5793401,Jalandhar,34,[LatLong 31.3208006 75.5793401],cpcbAq/034_CivilLine_Jalandhar,site_1438
KalalMajra,Khanna,30.7409308,76.2049712,Ludhiana,36,[LatLong 30.7409308 76.2049712],cpcbAq/036_KalalMajra_Khanna,site_1450
PunjabAgriculturalUniversity,Ludhiana,30.9041,75.8065531,Ludhiana,36,[LatLong 30.9041 75.8065531],cpcbAq/036_PunjabAgriculturalUniversity_Ludhiana,site_253
RIMTUniversity,MandiGobindgarh,30.6510104,76.329252,Fatehgarhsahib,30,[LatLong 30.6510104 76.329252],cpcbAq/030_RIMTUniversity_MandiGobindgarh,site_255
ModelTown,Patiala,30.3448377,76.3708347,Patiala,41,[LatLong 30.3448377 76.3708347],cpcbAq/041_ModelTown_Patiala,site_1437
Ratanpura,Rupnagar,31.0293638,76.5733862,Rupnagar,42,[LatLong 31.0293638 76.5733862],cpcbAq/042_Ratanpura_Rupnagar,site_1538
CivilLines,Ajmer,26.4726871,74.6415071,Ajmer,86,[LatLong 26.4726871 74.6415071],cpcbAq/086_CivilLines_Ajmer,site_1392
MotiDoongri,Alwar,27.5515817,76.6080554,Alwar,87,[LatLong 27.5515817 76.6080554],cpcbAq/087_MotiDoongri_Alwar,site_1390
RIICOInd.AreaIII,Bhiwadi,28.1765767,76.8744878,Alwar,87,[LatLong 28.1765767 76.8744878],cpcbAq/087_RIICOInd.AreaIII_Bhiwadi,site_1391
AdarshNagar,Jaipur,26.9018769,75.8271749,Jaipur,102,[LatLong 26.9018769 75.8271749],cpcbAq/102_AdarshNagar_Jaipur,site_1393
PoliceCommissionerate,Jaipur,26.9163897,75.8017169,Jaipur,102,[LatLong 26.9163897 75.8017169],cpcbAq/102_PoliceCommissionerate_Jaipur,site_134
ShastriNagar,Jaipur,26.9503102,75.8009833,Jaipur,102,[LatLong 26.9503102 75.8009833],cpcbAq/102_ShastriNagar_Jaipur,site_1396
Collectorate,Jodhpur,26.2918067,73.0366998,Jodhpur,107,[LatLong 26.2918067 73.0366998],cpcbAq/107_Collectorate_Jodhpur,site_136
ShrinathPuram,Kota,25.136387,75.8246657,Kota,109,[LatLong 25.136387 75.8246657],cpcbAq/109_ShrinathPuram_Kota,site_1394
IndiraColonyVistar,Pali,25.7731026,73.3502377,Pali,111,[LatLong 25.7731026 73.3502377],cpcbAq/111_IndiraColonyVistar_Pali,site_1395
AshokNagar,Udaipur,24.5886328,73.7021801,Udaipur,117,[LatLong 24.5886328 73.7021801],cpcbAq/117_AshokNagar_Udaipur,site_1397
ZeroPointGICI,Gangtok,27.3313512,88.6138113,East,78,[LatLong 27.3313512 88.6138113],cpcbAq/078_ZeroPointGICI_Gangtok,site_5590
AlandurBusDepot,Chennai,13.0036192,80.201928,Chennai,568,[LatLong 13.0036192 80.201928],cpcbAq/568_AlandurBusDepot_Chennai,site_293
Arumbakkam,Chennai,13.0724233,80.2101773,Chennai,568,[LatLong 13.0724233 80.2101773],cpcbAq/568_Arumbakkam_Chennai,site_5361
Kodungaiyur,Chennai,13.1374551,80.2478495,Thiruvallur,589,[LatLong 13.1374551 80.2478495],cpcbAq/589_Kodungaiyur_Chennai,site_5365
ManaliVillage,Chennai,13.1779289,80.2700737,Thiruvallur,589,[LatLong 13.1779289 80.2700737],cpcbAq/589_ManaliVillage_Chennai,site_5092
Manali,Chennai,13.1779289,80.2700737,Thiruvallur,589,[LatLong 13.1779289 80.2700737],cpcbAq/589_Manali_Chennai,site_306
Perungudi,Chennai,12.9653652,80.2461057,Chennai,568,[LatLong 12.9653652 80.2461057],cpcbAq/568_Perungudi_Chennai,site_5363
Royapuram,Chennai,13.1137008,80.2954115,Chennai,568,[LatLong 13.1137008 80.2954115],cpcbAq/568_Royapuram_Chennai,site_5364
VelacheryRes.Area,Chennai,12.9791347,80.2110172,Chennai,568,[LatLong 12.9791347 80.2110172],cpcbAq/568_VelacheryRes.Area_Chennai,site_288
SIDCOKurichi,Coimbatore,10.9438095,76.9772675,Coimbatore,569,[LatLong 10.9438095 76.9772675],cpcbAq/569_SIDCOKurichi_Coimbatore,site_5094
AnthoniPillaiNagar,Gummidipoondi,13.4092677,80.1009796,Thiruvallur,589,[LatLong 13.4092677 80.1009796],cpcbAq/589_AnthoniPillaiNagar_Gummidipoondi,site_5362
Meelavittan,Thoothukudi,8.8139002,78.0867474,Thoothukudi,594,[LatLong 8.8139002 78.0867474],cpcbAq/594_Meelavittan_Thoothukudi,site_5367
BollaramIndustrialArea,Hyderabad,17.5432727,78.3514088,Rangareddi,518,[LatLong 17.5432727 78.3514088],cpcbAq/518_BollaramIndustrialArea_Hyderabad,site_199
CentralUniversity,Hyderabad,17.4560377,78.3331214,Rangareddi,518,[LatLong 17.4560377 78.3331214],cpcbAq/518_CentralUniversity_Hyderabad,site_262
ECILKapra,Hyderabad,17.4639628,78.5788601,Rangareddi,518,[LatLong 17.4639628 78.5788601],cpcbAq/518_ECILKapra_Hyderabad,site_5596
ICRISATPatancheru,Hyderabad,17.5110595,78.2751939,Medak,513,[LatLong 17.5110595 78.2751939],cpcbAq/513_ICRISATPatancheru_Hyderabad,site_251
IDAPashamylaram,Hyderabad,17.5324702,78.1849427,Medak,513,[LatLong 17.5324702 78.1849427],cpcbAq/513_IDAPashamylaram_Hyderabad,site_275
IITHKandi,Hyderabad,17.5947027,78.1230401,Medak,513,[LatLong 17.5947027 78.1230401],cpcbAq/513_IITHKandi_Hyderabad,site_5597
Kokapet,Hyderabad,17.3968106,78.3347961,Rangareddi,518,[LatLong 17.3968106 78.3347961],cpcbAq/518_Kokapet_Hyderabad,site_5604
KompallyMunicipalOffice,Hyderabad,17.5445442,78.4888327,Rangareddi,518,[LatLong 17.5445442 78.4888327],cpcbAq/518_KompallyMunicipalOffice_Hyderabad,site_5599
NacharamTSIICIALA,Hyderabad,17.4261564,78.5615389,Rangareddi,518,[LatLong 17.4261564 78.5615389],cpcbAq/518_NacharamTSIICIALA_Hyderabad,site_5600
NewMalakpet,Hyderabad,17.367174,78.5135902,Hyderabad,507,[LatLong 17.367174 78.5135902],cpcbAq/507_NewMalakpet_Hyderabad,site_5595
Ramachandrapuram,Hyderabad,17.5102971,78.2938137,Medak,513,[LatLong 17.5102971 78.2938137],cpcbAq/513_Ramachandrapuram_Hyderabad,site_5602
Sanathnagar,Hyderabad,17.4562544,78.4439295,Rangareddi,518,[LatLong 17.4562544 78.4439295],cpcbAq/518_Sanathnagar_Hyderabad,site_294
Somajiguda,Hyderabad,17.4237128,78.4584013,Hyderabad,507,[LatLong 17.4237128 78.4584013],cpcbAq/507_Somajiguda_Hyderabad,site_5598
ZooPark,Hyderabad,17.350678,78.4513068,Hyderabad,507,[LatLong 17.350678 78.4513068],cpcbAq/507_ZooPark_Hyderabad,site_298
Bardowali,Agartala,23.8219021,91.275674,Westtripura,272,[LatLong 23.8219021 91.275674],cpcbAq/272_Bardowali_Agartala,site_5587
Kunjaban,Agartala,23.8635079,91.2903074,Westtripura,272,[LatLong 23.8635079 91.2903074],cpcbAq/272_Kunjaban_Agartala,site_5377
Manoharpur,Agra,27.2344638,78.0266735,Firozabad,143,[LatLong 27.2344638 78.0266735],cpcbAq/143_Manoharpur_Agra,site_5464
Rohta,Agra,27.1092929,78.0024134,Agra,118,[LatLong 27.1092929 78.0024134],cpcbAq/118_Rohta_Agra,site_5482
SanjayPalace,Agra,27.1986569,78.0059814,Agra,118,[LatLong 27.1986569 78.0059814],cpcbAq/118_SanjayPalace_Agra,site_307
Sector3BAvasVikasColony,Agra,27.1997026,77.9639624,Agra,118,[LatLong 27.1997026 77.9639624],cpcbAq/118_Sector3BAvasVikasColony_Agra,site_5465
ShahjahanGarden,Agra,27.1747896,78.0251692,Agra,118,[LatLong 27.1747896 78.0251692],cpcbAq/118_ShahjahanGarden_Agra,site_5501
Shastripuram,Agra,27.20397,77.9253155,Agra,118,[LatLong 27.20397 77.9253155],cpcbAq/118_Shastripuram_Agra,site_5463
NewCollectorate,Baghpat,28.9427827,77.227607,Baghpat,124,[LatLong 28.9427827 77.227607],cpcbAq/124_NewCollectorate_Baghpat,site_1569
SardarPatelInterCollege,Baghpat,28.9427827,77.227607,Baghpat,124,[LatLong 28.9427827 77.227607],cpcbAq/124_SardarPatelInterCollege_Baghpat,site_5585
RajendraNagar,Bareilly,28.3872102,79.4261906,Bareilly,130,[LatLong 28.3872102 79.4261906],cpcbAq/130_RajendraNagar_Bareilly,site_5601
Yamunapuram,Bulandshahr,28.4088401,77.8295809,Bulandshahr,134,[LatLong 28.4088401 77.8295809],cpcbAq/134_Yamunapuram_Bulandshahr,site_1542
NaglaBhau,Firozabad,27.1679708,78.3751147,Firozabad,143,[LatLong 27.1679708 78.3751147],cpcbAq/143_NaglaBhau_Firozabad,site_5480
VibhabNagar,Firozabad,27.1640151,78.3913328,Firozabad,143,[LatLong 27.1640151 78.3913328],cpcbAq/143_VibhabNagar_Firozabad,site_5584
Indirapuram,Ghaziabad,28.6460176,77.3695166,Gautambuddhanagar,144,[LatLong 28.6460176 77.3695166],cpcbAq/144_Indirapuram_Ghaziabad,site_5082
Loni,Ghaziabad,28.7333526,77.2986264,Ghaziabad,145,[LatLong 28.7333526 77.2986264],cpcbAq/145_Loni_Ghaziabad,site_5083
SanjayNagar,Ghaziabad,28.6939957,77.4549679,Ghaziabad,145,[LatLong 28.6939957 77.4549679],cpcbAq/145_SanjayNagar_Ghaziabad,site_5081
Vasundhara,Ghaziabad,28.6623758,77.37344,Gautambuddhanagar,144,[LatLong 28.6623758 77.37344],cpcbAq/144_Vasundhara_Ghaziabad,site_144
MadanMohanMalaviyaUniversityofTechnology,Gorakhpur,26.7314295,83.4331276,Gorakhpur,148,[LatLong 26.7314295 83.4331276],cpcbAq/148_MadanMohanMalaviyaUniversityofTechnology_Gorakhpur,site_5472
KnowledgePark,Gautambuddhanagar,28.478481,77.4814103,Gautambuddhanagar,144,[LatLong 28.478481 77.4814103],cpcbAq/144_KnowledgePark_Gautambuddhanagar,site_1541
AnandVihar,Hapur,28.7222506,77.7537913,Ghaziabad,145,[LatLong 28.7222506 77.7537913],cpcbAq/145_AnandVihar_Hapur,site_5023
ShivajiNagar,Jhansi,25.4504122,78.594297,Jhansi,153,[LatLong 25.4504122 78.594297],cpcbAq/153_ShivajiNagar_Jhansi,site_5583
FTIKidwaiNagar,Kanpur,26.4284187,80.3282175,Kanpur,157,[LatLong 26.4284187 80.3282175],cpcbAq/157_FTIKidwaiNagar_Kanpur,site_5500
IITK,Kanpur,26.449923,80.3318736,Kanpur,157,[LatLong 26.449923 80.3318736],cpcbAq/157_IITK_Kanpur,site_5416
NSIKalyanpur,Kanpur,26.5068262,80.251966,Kanpur,157,[LatLong 26.5068262 80.251966],cpcbAq/157_NSIKalyanpur_Kanpur,site_5474
NehruNagar,Kanpur,26.4715909,80.3237548,Kanpur,157,[LatLong 26.4715909 80.3237548],cpcbAq/157_NehruNagar_Kanpur,site_276
KalindiKunj,Khurja,28.2360265,77.8686097,Bulandshahr,134,[LatLong 28.2360265 77.8686097],cpcbAq/134_KalindiKunj_Khurja,site_5603
BRAmbedkarUniversity,Lucknow,26.7674267,80.9235387,Lucknow,162,[LatLong 26.7674267 80.9235387],cpcbAq/162_BRAmbedkarUniversity_Lucknow,site_5460
CentralSchool,Lucknow,26.8466937,80.946166,Lucknow,162,[LatLong 26.8466937 80.946166],cpcbAq/162_CentralSchool_Lucknow,site_272
GomtiNagar,Lucknow,26.8496217,81.0072193,Lucknow,162,[LatLong 26.8496217 81.0072193],cpcbAq/162_GomtiNagar_Lucknow,site_5128
KukrailPicnicSpot,Lucknow,26.9065183,80.9838959,Lucknow,162,[LatLong 26.9065183 80.9838959],cpcbAq/162_KukrailPicnicSpot_Lucknow,site_5462
Lalbagh,Lucknow,26.8459624,80.9415089,Lucknow,162,[LatLong 26.8459624 80.9415089],cpcbAq/162_Lalbagh_Lucknow,site_277
TalkatoraDistrictIndustriesCenter,Lucknow,26.8415948,80.9422923,Lucknow,162,[LatLong 26.8415948 80.9422923],cpcbAq/162_TalkatoraDistrictIndustriesCenter_Lucknow,site_297
GangaNagar,Meerut,29.0009035,77.7599208,Meerut,169,[LatLong 29.0009035 77.7599208],cpcbAq/169_GangaNagar_Meerut,site_5258
JaiBhimNagar,Meerut,28.9579131,77.7595131,Meerut,169,[LatLong 28.9579131 77.7595131],cpcbAq/169_JaiBhimNagar_Meerut,site_5109
PallavpuramPhase2,Meerut,29.0641002,77.7151616,Meerut,169,[LatLong 29.0641002 77.7151616],cpcbAq/169_PallavpuramPhase2_Meerut,site_5257
BuddhiVihar,Moradabad,28.8320769,78.7221251,Moradabad,171,[LatLong 28.8320769 78.7221251],cpcbAq/171_BuddhiVihar_Moradabad,site_5554
EcoHerbalPark,Moradabad,28.8412553,78.6966886,Moradabad,171,[LatLong 28.8412553 78.6966886],cpcbAq/171_EcoHerbalPark_Moradabad,site_5556
EmploymentOffice,Moradabad,28.8853105,78.7387581,Moradabad,171,[LatLong 28.8853105 78.7387581],cpcbAq/171_EmploymentOffice_Moradabad,site_5537
JigarColony,Moradabad,28.8552539,78.7709978,Moradabad,171,[LatLong 28.8552539 78.7709978],cpcbAq/171_JigarColony_Moradabad,site_5555
LajpatNagar,Moradabad,28.8253591,78.7830383,Moradabad,171,[LatLong 28.8253591 78.7830383],cpcbAq/171_LajpatNagar_Moradabad,site_1398
NewMandi,Muzaffarnagar,29.4676905,77.7115687,Muzaffarnagar,172,[LatLong 29.4676905 77.7115687],cpcbAq/172_NewMandi_Muzaffarnagar,site_1550
Sector,Lucknow,26.8467088,80.9461592,Lucknow,162,[LatLong 26.8467088 80.9461592],cpcbAq/162_Sector_Lucknow,site_153
Sector1,Noida,28.5900173,77.3116215,Gautambuddhanagar,144,[LatLong 28.5900173 77.3116215],cpcbAq/144_Sector1_Noida,site_5123
Sector116,Noida,28.567225,77.3970354,Gautambuddhanagar,144,[LatLong 28.567225 77.3970354],cpcbAq/144_Sector116_Noida,site_5122
Jhunsi,Prayagraj,25.4290183,81.9139692,Allahabad,120,[LatLong 25.4290183 81.9139692],cpcbAq/120_Jhunsi_Prayagraj,site_5461
MotilalNehruNIT,Prayagraj,25.4239934,81.8112481,Kaushambi,158,[LatLong 25.4239934 81.8112481],cpcbAq/158_MotilalNehruNIT_Prayagraj,site_5459
NagarNigam,Prayagraj,25.4491339,81.8273517,Kaushambi,158,[LatLong 25.4491339 81.8273517],cpcbAq/158_NagarNigam_Prayagraj,site_5484
ArdhaliBazar,Varanasi,25.3476918,82.9808861,Varanasi,187,[LatLong 25.3476918 82.9808861],cpcbAq/187_ArdhaliBazar_Varanasi,site_273
Bhelupur,Varanasi,25.3016276,82.9962631,Varanasi,187,[LatLong 25.3016276 82.9962631],cpcbAq/187_Bhelupur_Varanasi,site_5469
IESDBanarasHinduUniversity,Varanasi,25.2677203,82.9912582,Varanasi,187,[LatLong 25.2677203 82.9912582],cpcbAq/187_IESDBanarasHinduUniversity_Varanasi,site_5468
Maldahiya,Varanasi,25.325495,82.9951758,Varanasi,187,[LatLong 25.325495 82.9951758],cpcbAq/187_Maldahiya_Varanasi,site_5475
OmexEternity,Vrindavan,27.5761332,77.651225,Mathura,167,[LatLong 27.5761332 77.651225],cpcbAq/167_OmexEternity_Vrindavan,site_5483
DoonUniversity,Dehradun,30.2690156,78.0442659,Dehradun,49,[LatLong 30.2690156 78.0442659],cpcbAq/049_DoonUniversity_Dehradun,site_5594
AsansolCourtArea,Asansol,23.6871984,86.9461361,Barddhaman,306,[LatLong 23.6871984 86.9461361],cpcbAq/306_AsansolCourtArea_Asansol,site_1418
SidhuKanhuIndoorStadium,Durgapur,23.5404375,87.2914219,Barddhaman,306,[LatLong 23.5404375 87.2914219],cpcbAq/306_SidhuKanhuIndoorStadium_Durgapur,site_299
Haldia,Haldia,22.0627164,88.0832934,Eastmidnapore,318,[LatLong 22.0627164 88.0832934],cpcbAq/318_Haldia_Haldia,site_300
BelurMath,Howrah,22.6263806,88.3555025,Haora,313,[LatLong 22.6263806 88.3555025],cpcbAq/313_BelurMath_Howrah,site_5101
Ghusuri,Howrah,22.6114858,88.3540145,Haora,313,[LatLong 22.6114858 88.3540145],cpcbAq/313_Ghusuri_Howrah,site_274
Padmapukur,Howrah,22.5707053,88.3008448,Haora,313,[LatLong 22.5707053 88.3008448],cpcbAq/313_Padmapukur_Howrah,site_1416
Ballygunge,Kolkata,22.5280352,88.3659083,Kolkata,315,[LatLong 22.5280352 88.3659083],cpcbAq/315_Ballygunge_Kolkata,site_5238
Bidhannagar,Kolkata,22.5796842,88.414312,North24parganas,303,[LatLong 22.5796842 88.414312],cpcbAq/303_Bidhannagar_Kolkata,site_5129
FortWilliam,Kolkata,22.5546875,88.3360765,Kolkata,315,[LatLong 22.5546875 88.3360765],cpcbAq/315_FortWilliam_Kolkata,site_5110
Jadavpur,Kolkata,22.4954988,88.3709008,South24parganas,304,[LatLong 22.4954988 88.3709008],cpcbAq/304_Jadavpur_Kolkata,site_5111
RabindraBharatiUniversity,Kolkata,22.6270077,88.3806825,Kolkata,315,[LatLong 22.6270077 88.3806825],cpcbAq/315_RabindraBharatiUniversity_Kolkata,site_296
RabindraSarobar,Kolkata,22.5121451,88.3636952,Kolkata,315,[LatLong 22.5121451 88.3636952],cpcbAq/315_RabindraSarobar_Kolkata,site_5126
Victoria,Kolkata,22.5424178,88.3529215,Kolkata,315,[LatLong 22.5424178 88.3529215],cpcbAq/315_Victoria_Kolkata,site_309
Ward32Bapupara,Siliguri,26.6922399,88.4158141,Jalpaiguri,314,[LatLong 26.6922399 88.4158141],cpcbAq/314_Ward32Bapupara_Siliguri,site_1419
